<?xml version="1.0" encoding="UTF-8"?>
<ndm xmlns:xsi="http://www.w3.org/2001/XMLSchema-instance" xsi:noNamespaceSchemaLocation="https://sanaregistry.org/r/ndmxml_unqualified/ndmxml-2.0.0-master-2.0.xsd">
<omm id="CCSDS_OMM_VERS" version="2.0">
<header><CREATION_DATE/><ORIGINATOR/></header><body><segment><metadata><OBJECT_NAME>ONEWEB-0317</OBJECT_NAME><OBJECT_ID>2021-075AE</OBJECT_ID><CENTER_NAME>EARTH</CENTER_NAME><REF_FRAME>TEME</REF_FRAME><TIME_SYSTEM>UTC</TIME_SYSTEM><MEAN_ELEMENT_THEORY>SGP4</MEAN_ELEMENT_THEORY></metadata><data><meanElements><EPOCH>2023-11-13T20:54:36.376704</EPOCH><MEAN_MOTION>13.12440855</MEAN_MOTION><ECCENTRICITY>.0001341</ECCENTRICITY><INCLINATION>87.9029</INCLINATION><RA_OF_ASC_NODE>178.8724</RA_OF_ASC_NODE><ARG_OF_PERICENTER>85.4358</ARG_OF_PERICENTER><MEAN_ANOMALY>274.6924</MEAN_ANOMALY></meanElements><tleParameters><EPHEMERIS_TYPE>0</EPHEMERIS_TYPE><CLASSIFICATION_TYPE>U</CLASSIFICATION_TYPE><NORAD_CAT_ID>49103</NORAD_CAT_ID><ELEMENT_SET_NO>999</ELEMENT_SET_NO><REV_AT_EPOCH>11106</REV_AT_EPOCH><BSTAR>-.20915E-2</BSTAR><MEAN_MOTION_DOT>-.74E-5</MEAN_MOTION_DOT><MEAN_MOTION_DDOT>0</MEAN_MOTION_DDOT></tleParameters></data></segment></body></omm>
<omm id="CCSDS_OMM_VERS" version="2.0">
<header><CREATION_DATE/><ORIGINATOR/></header><body><segment><metadata><OBJECT_NAME>ONEWEB-0318</OBJECT_NAME><OBJECT_ID>2021-075AF</OBJECT_ID><CENTER_NAME>EARTH</CENTER_NAME><REF_FRAME>TEME</REF_FRAME><TIME_SYSTEM>UTC</TIME_SYSTEM><MEAN_ELEMENT_THEORY>SGP4</MEAN_ELEMENT_THEORY></metadata><data><meanElements><EPOCH>2023-11-13T19:48:10.909728</EPOCH><MEAN_MOTION>13.18685093</MEAN_MOTION><ECCENTRICITY>.0001987</ECCENTRICITY><INCLINATION>87.9159</INCLINATION><RA_OF_ASC_NODE>163.7233</RA_OF_ASC_NODE><ARG_OF_PERICENTER>82.1885</ARG_OF_PERICENTER><MEAN_ANOMALY>277.9473</MEAN_ANOMALY></meanElements><tleParameters><EPHEMERIS_TYPE>0</EPHEMERIS_TYPE><CLASSIFICATION_TYPE>U</CLASSIFICATION_TYPE><NORAD_CAT_ID>49104</NORAD_CAT_ID><ELEMENT_SET_NO>999</ELEMENT_SET_NO><REV_AT_EPOCH>11244</REV_AT_EPOCH><BSTAR>.23503E-3</BSTAR><MEAN_MOTION_DOT>.106E-5</MEAN_MOTION_DOT><MEAN_MOTION_DDOT>0</MEAN_MOTION_DDOT></tleParameters></data></segment></body></omm>
<omm id="CCSDS_OMM_VERS" version="2.0">
<header><CREATION_DATE/><ORIGINATOR/></header><body><segment><metadata><OBJECT_NAME>ONEWEB-0319</OBJECT_NAME><OBJECT_ID>2021-075AG</OBJECT_ID><CENTER_NAME>EARTH</CENTER_NAME><REF_FRAME>TEME</REF_FRAME><TIME_SYSTEM>UTC</TIME_SYSTEM><MEAN_ELEMENT_THEORY>SGP4</MEAN_ELEMENT_THEORY></metadata><data><meanElements><EPOCH>2023-11-13T22:25:16.188960</EPOCH><MEAN_MOTION>13.17650046</MEAN_MOTION><ECCENTRICITY>.0002227</ECCENTRICITY><INCLINATION>87.9247</INCLINATION><RA_OF_ASC_NODE>193.9680</RA_OF_ASC_NODE><ARG_OF_PERICENTER>85.2558</ARG_OF_PERICENTER><MEAN_ANOMALY>274.8827</MEAN_ANOMALY></meanElements><tleParameters><EPHEMERIS_TYPE>0</EPHEMERIS_TYPE><CLASSIFICATION_TYPE>U</CLASSIFICATION_TYPE><NORAD_CAT_ID>49105</NORAD_CAT_ID><ELEMENT_SET_NO>999</ELEMENT_SET_NO><REV_AT_EPOCH>10899</REV_AT_EPOCH><BSTAR>-.15288E-3</BSTAR><MEAN_MOTION_DOT>-.46E-6</MEAN_MOTION_DOT><MEAN_MOTION_DDOT>0</MEAN_MOTION_DDOT></tleParameters></data></segment></body></omm>
<omm id="CCSDS_OMM_VERS" version="2.0">
<header><CREATION_DATE/><ORIGINATOR/></header><body><segment><metadata><OBJECT_NAME>ONEWEB-0323</OBJECT_NAME><OBJECT_ID>2021-075AH</OBJECT_ID><CENTER_NAME>EARTH</CENTER_NAME><REF_FRAME>TEME</REF_FRAME><TIME_SYSTEM>UTC</TIME_SYSTEM><MEAN_ELEMENT_THEORY>SGP4</MEAN_ELEMENT_THEORY></metadata><data><meanElements><EPOCH>2023-11-13T20:40:55.503264</EPOCH><MEAN_MOTION>13.12444039</MEAN_MOTION><ECCENTRICITY>.0001995</ECCENTRICITY><INCLINATION>87.9024</INCLINATION><RA_OF_ASC_NODE>178.8632</RA_OF_ASC_NODE><ARG_OF_PERICENTER>87.7070</ARG_OF_PERICENTER><MEAN_ANOMALY>272.4287</MEAN_ANOMALY></meanElements><tleParameters><EPHEMERIS_TYPE>0</EPHEMERIS_TYPE><CLASSIFICATION_TYPE>U</CLASSIFICATION_TYPE><NORAD_CAT_ID>49106</NORAD_CAT_ID><ELEMENT_SET_NO>999</ELEMENT_SET_NO><REV_AT_EPOCH>11042</REV_AT_EPOCH><BSTAR>-.97468E-3</BSTAR><MEAN_MOTION_DOT>-.338E-5</MEAN_MOTION_DOT><MEAN_MOTION_DDOT>0</MEAN_MOTION_DDOT></tleParameters></data></segment></body></omm>
<omm id="CCSDS_OMM_VERS" version="2.0">
<header><CREATION_DATE/><ORIGINATOR/></header><body><segment><metadata><OBJECT_NAME>ONEWEB-0329</OBJECT_NAME><OBJECT_ID>2021-075AJ</OBJECT_ID><CENTER_NAME>EARTH</CENTER_NAME><REF_FRAME>TEME</REF_FRAME><TIME_SYSTEM>UTC</TIME_SYSTEM><MEAN_ELEMENT_THEORY>SGP4</MEAN_ELEMENT_THEORY></metadata><data><meanElements><EPOCH>2023-11-13T13:27:39.218976</EPOCH><MEAN_MOTION>13.17648688</MEAN_MOTION><ECCENTRICITY>.0001704</ECCENTRICITY><INCLINATION>87.9248</INCLINATION><RA_OF_ASC_NODE>194.0450</RA_OF_ASC_NODE><ARG_OF_PERICENTER>86.2793</ARG_OF_PERICENTER><MEAN_ANOMALY>273.8533</MEAN_ANOMALY></meanElements><tleParameters><EPHEMERIS_TYPE>0</EPHEMERIS_TYPE><CLASSIFICATION_TYPE>U</CLASSIFICATION_TYPE><NORAD_CAT_ID>49107</NORAD_CAT_ID><ELEMENT_SET_NO>999</ELEMENT_SET_NO><REV_AT_EPOCH>10892</REV_AT_EPOCH><BSTAR>.14173E-3</BSTAR><MEAN_MOTION_DOT>.68E-6</MEAN_MOTION_DOT><MEAN_MOTION_DDOT>0</MEAN_MOTION_DDOT></tleParameters></data></segment></body></omm>
<omm id="CCSDS_OMM_VERS" version="2.0">
<header><CREATION_DATE/><ORIGINATOR/></header><body><segment><metadata><OBJECT_NAME>ONEWEB-0330</OBJECT_NAME><OBJECT_ID>2021-075AK</OBJECT_ID><CENTER_NAME>EARTH</CENTER_NAME><REF_FRAME>TEME</REF_FRAME><TIME_SYSTEM>UTC</TIME_SYSTEM><MEAN_ELEMENT_THEORY>SGP4</MEAN_ELEMENT_THEORY></metadata><data><meanElements><EPOCH>2023-11-13T13:30:40.588128</EPOCH><MEAN_MOTION>13.17650260</MEAN_MOTION><ECCENTRICITY>.0001588</ECCENTRICITY><INCLINATION>87.9231</INCLINATION><RA_OF_ASC_NODE>194.0526</RA_OF_ASC_NODE><ARG_OF_PERICENTER>90.0355</ARG_OF_PERICENTER><MEAN_ANOMALY>270.0958</MEAN_ANOMALY></meanElements><tleParameters><EPHEMERIS_TYPE>0</EPHEMERIS_TYPE><CLASSIFICATION_TYPE>U</CLASSIFICATION_TYPE><NORAD_CAT_ID>49108</NORAD_CAT_ID><ELEMENT_SET_NO>999</ELEMENT_SET_NO><REV_AT_EPOCH>10896</REV_AT_EPOCH><BSTAR>.98378E-4</BSTAR><MEAN_MOTION_DOT>.51E-6</MEAN_MOTION_DOT><MEAN_MOTION_DDOT>0</MEAN_MOTION_DDOT></tleParameters></data></segment></body></omm>
<omm id="CCSDS_OMM_VERS" version="2.0">
<header><CREATION_DATE/><ORIGINATOR/></header><body><segment><metadata><OBJECT_NAME>ONEWEB-0292</OBJECT_NAME><OBJECT_ID>2021-083A</OBJECT_ID><CENTER_NAME>EARTH</CENTER_NAME><REF_FRAME>TEME</REF_FRAME><TIME_SYSTEM>UTC</TIME_SYSTEM><MEAN_ELEMENT_THEORY>SGP4</MEAN_ELEMENT_THEORY></metadata><data><meanElements><EPOCH>2023-11-13T19:25:41.760768</EPOCH><MEAN_MOTION>13.13471471</MEAN_MOTION><ECCENTRICITY>.0001588</ECCENTRICITY><INCLINATION>87.8985</INCLINATION><RA_OF_ASC_NODE>148.5778</RA_OF_ASC_NODE><ARG_OF_PERICENTER>83.1108</ARG_OF_PERICENTER><MEAN_ANOMALY>277.0202</MEAN_ANOMALY></meanElements><tleParameters><EPHEMERIS_TYPE>0</EPHEMERIS_TYPE><CLASSIFICATION_TYPE>U</CLASSIFICATION_TYPE><NORAD_CAT_ID>49186</NORAD_CAT_ID><ELEMENT_SET_NO>999</ELEMENT_SET_NO><REV_AT_EPOCH>10669</REV_AT_EPOCH><BSTAR>-.17705E-3</BSTAR><MEAN_MOTION_DOT>-.52E-6</MEAN_MOTION_DOT><MEAN_MOTION_DDOT>0</MEAN_MOTION_DDOT></tleParameters></data></segment></body></omm>
<omm id="CCSDS_OMM_VERS" version="2.0">
<header><CREATION_DATE/><ORIGINATOR/></header><body><segment><metadata><OBJECT_NAME>ONEWEB-0303</OBJECT_NAME><OBJECT_ID>2021-083B</OBJECT_ID><CENTER_NAME>EARTH</CENTER_NAME><REF_FRAME>TEME</REF_FRAME><TIME_SYSTEM>UTC</TIME_SYSTEM><MEAN_ELEMENT_THEORY>SGP4</MEAN_ELEMENT_THEORY></metadata><data><meanElements><EPOCH>2023-11-13T12:25:03.798048</EPOCH><MEAN_MOTION>13.18684131</MEAN_MOTION><ECCENTRICITY>.0001849</ECCENTRICITY><INCLINATION>87.9158</INCLINATION><RA_OF_ASC_NODE>163.7872</RA_OF_ASC_NODE><ARG_OF_PERICENTER>83.8429</ARG_OF_PERICENTER><MEAN_ANOMALY>276.2914</MEAN_ANOMALY></meanElements><tleParameters><EPHEMERIS_TYPE>0</EPHEMERIS_TYPE><CLASSIFICATION_TYPE>U</CLASSIFICATION_TYPE><NORAD_CAT_ID>49187</NORAD_CAT_ID><ELEMENT_SET_NO>999</ELEMENT_SET_NO><REV_AT_EPOCH>10521</REV_AT_EPOCH><BSTAR>-.10535E-3</BSTAR><MEAN_MOTION_DOT>-.29E-6</MEAN_MOTION_DOT><MEAN_MOTION_DDOT>0</MEAN_MOTION_DDOT></tleParameters></data></segment></body></omm>

</ndm>
