ONEWEB-0317             
1 49103U 21075AE  23317.87125436 -.00000740  00000+0 -20915-2 0  9995
2 49103  87.9029 178.8724 0001341  85.4358 274.6924 13.12440855111069
ONEWEB-0318             
1 49104U 21075AF  23317.82512627  .00000106  00000+0  23503-3 0  9994
2 49104  87.9159 163.7233 0001987  82.1885 277.9473 13.18685093112446
ONEWEB-0319             
1 49105U 21075AG  23317.93421515 -.00000046  00000+0 -15288-3 0  9998
2 49105  87.9247 193.9680 0002227  85.2558 274.8827 13.17650046108998
ONEWEB-0323             
1 49106U 21075AH  23317.86175351 -.00000338  00000+0 -97468-3 0  9999
2 49106  87.9024 178.8632 0001995  87.7070 272.4287 13.12444039110421
ONEWEB-0329             
1 49107U 21075AJ  23317.56087059  .00000068  00000+0  14173-3 0  9994
2 49107  87.9248 194.0450 0001704  86.2793 273.8533 13.17648688108924
ONEWEB-0330             
1 49108U 21075AK  23317.56296977  .00000051  00000+0  98378-4 0  9998
2 49108  87.9231 194.0526 0001588  90.0355 270.0958 13.17650260108961
ONEWEB-0292             
1 49186U 21083A   23317.80951112 -.00000052  00000+0 -17705-3 0  9996
2 49186  87.8985 148.5778 0001588  83.1108 277.0202 13.13471471106692
ONEWEB-0303             
1 49187U 21083B   23317.51740507 -.00000029  00000+0 -10535-3 0  9997
2 49187  87.9158 163.7872 0001849  83.8429 276.2914 13.18684131105215
